ONEWEB-0628             
1 55169U 23004AF  24225.46749060  .00000233  00000+0  61206-3 0  9991
2 55169  87.8941 124.8168 0002732  73.6604 286.4825 13.12443678 79667
ONEWEB-0629             
1 55170U 23004AG  24225.87152966  .00000162  00000+0  37361-3 0  9997
2 55170  87.9185 139.9654 0002281  67.6594 292.4780 13.19270977 78918
ONEWEB-0631             
1 55171U 23004AH  24225.62118625  .00000045  00000+0  80212-4 0  9999
2 55171  87.9125 109.5108 0002096  97.1820 262.9550 13.18688645 80907
ONEWEB-0709             
1 55172U 23004AJ  24225.50387080 -.00001861  00000+0 -52904-2 0  9994
2 55172  87.8996 155.2262 0001477 118.1986 241.9292 13.11400307 77570
ONEWEB-0710             
1 55173U 23004AK  24225.49854571  .00000067  00000+0  13994-3 0  9999
2 55173  87.9185 140.0575 0002034  81.1175 279.0187 13.17652569 78863
ONEWEB-0711             
1 55174U 23004AL  24225.78022065  .00000164  00000+0  42748-3 0  9994
2 55174  87.8998 155.1406 0002921  79.3465 280.7992 13.11417115 77582
ONEWEB-0713             
1 55175U 23004AM  24225.79888551  .00000579  00000+0  15982-2 0  9995
2 55175  87.8997 155.1449 0002402  78.3874 281.7524 13.11419166 77564
ONEWEB-0715             
1 55176U 23004AN  24225.56491667  .00000647  00000+0  17892-2 0  9997
2 55176  87.8997 155.1914 0002117  88.6038 271.5333 13.11420280 77576
